NORAD_CAT_ID,OBJECT_NAME,OBJECT_TYPE,EPOCH,MEAN_MOTION,ECCENTRICITY,INCLINATION,RA_OF_ASC_NODE,ARG_OF_PERICENTER,MEAN_ANOMALY,BSTAR,MEAN_MOTION_DOT,MEAN_MOTION_DDOT,TLE_LINE0,TLE_LINE1,TLE_LINE2,SEMIMAJOR_AXIS,PERIOD,APOGEE,PERIGEE,DECAYED
52539.0,STARLINK-3757,PAYLOAD,2022-05-27 22:00:01,15.73228669,0.0002195,53.218,223.8672,19.9611,137.8546,-0.00083347,-0.0011615,0.0,0 STARLINK-3757,1 52539U 22051G   22147.91668981 -.00116150  00000-0 -83347-3 0  9992,2 52539  53.2180 223.8672 0002195  19.9611 137.8546 15.73228669  2745,6727.813,91.532,351.155,348.202,0.0
52539.0,STARLINK-3757,PAYLOAD,2022-05-28 06:00:02,15.73302615,0.0001992,53.2178,222.2119,23.7344,223.0246,-0.0010915,-0.00151755,0.0,0 STARLINK-3757,1 52539U 22051G   22148.25002315 -.00151755  00000-0 -10915-2 0  9993,2 52539  53.2178 222.2119 0001992  23.7344 223.0246 15.73302615  2795,6727.603,91.527,350.80800000000005,348.12699999999984,0.0
52539.0,STARLINK-3757,PAYLOAD,2022-05-28 12:34:45,15.73270246,0.0003356,53.2197,220.8613,22.8884,337.2285,0.0003956,0.00055445,0.0,0 STARLINK-3757,1 52539U 22051G   22148.52413430  .00055445  00000-0  39560-3 0  9992,2 52539  53.2197 220.8613 0003356  22.8884 337.2285 15.73270246  2777,6727.695,91.529,351.8180000000001,347.302,0.0
52539.0,STARLINK-3757,PAYLOAD,2022-05-28 20:12:09,15.73220753,0.0004575,53.2197,219.2896,21.5399,338.5813,0.00011453,0.00015501,0.0,0 STARLINK-3757,1 52539U 22051G   22148.84177989  .00015501  00000-0  11453-3 0  9993,2 52539  53.2197 219.2896 0004575  21.5399 338.5813 15.73220753  2895,6727.8359999999975,91.532,352.779,346.62300000000016,0.0
52539.0,STARLINK-3757,PAYLOAD,2022-05-29 12:58:25,15.73271597,0.000269,53.2189,215.8322,30.6413,329.4764,0.00051937,0.0007314,0.0,0 STARLINK-3757,1 52539U 22051G   22149.54057807  .00073140  00000-0  51937-3 0  9991,2 52539  53.2189 215.8322 0002690  30.6413 329.4764 15.73271597  2937,6727.691,91.529,351.366,347.746,0.0
52539.0,STARLINK-3757,PAYLOAD,2022-05-29 14:00:01,15.73161802,0.0002503,53.2176,215.6221,16.8559,225.5679,-0.00037834,-0.00053306,0.0,0 STARLINK-3757,1 52539U 22051G   22149.58334491 -.00053306  00000-0 -37834-3 0  9996,2 52539  53.2176 215.6221 0002503  16.8559 225.5679 15.73161802  3006,6728.004,91.535,351.55300000000005,348.185,0.0
52539.0,STARLINK-3757,PAYLOAD,2022-05-29 22:00:00,15.73116848,0.0002364,53.2177,213.971,17.6573,313.6545,-0.00013093,-0.00018892,0.0,0 STARLINK-3757,1 52539U 22051G   22149.91667824 -.00018892  00000-0 -13093-3 0  9994,2 52539  53.2177 213.9710 0002364  17.6573 313.6545 15.73116848  1303,6728.132,91.538,351.588,348.407,0.0
52539.0,STARLINK-3757,PAYLOAD,2022-05-30 06:00:00,15.73097105,0.0002423,53.2178,212.3216,20.8652,39.251,0.00095299,0.00134703,0.0,0 STARLINK-3757,1 52539U 22051G   22150.25001157  .00134703  00000-0  95299-3 0  9990,2 52539  53.2178 212.3216 0002423  20.8652  39.2510 15.73097105  3116,6728.189,91.539,351.684,348.423,0.0
52539.0,STARLINK-3757,PAYLOAD,2022-05-30 12:00:00,15.73173494,0.0002734,53.2174,211.0848,21.3414,15.3896,0.00041704,0.00058255,0.0,0 STARLINK-3757,1 52539U 22051G   22150.50001157  .00058255  00000-0  41704-3 0  9997,2 52539  53.2174 211.0848 0002734  21.3414  15.3896 15.73173494  3158,6727.971,91.535,351.675,347.996,0.0
52539.0,STARLINK-3757,PAYLOAD,2022-05-30 13:22:11,15.73135323,0.0002291,53.2169,210.8015,21.3102,338.8013,0.00015787,0.00021532,0.0,0 STARLINK-3757,1 52539U 22051G   22150.55707728  .00021532  00000-0  15787-3 0  9999,2 52539  53.2169 210.8015 0002291  21.3102 338.8013 15.73135323  3093,6728.08,91.537,351.486,348.403,0.0
52539.0,STARLINK-3757,PAYLOAD,2022-05-30 20:59:35,15.73193993,0.0002639,53.2168,209.2305,20.3405,339.7719,0.00039351,0.0005496,0.0,0 STARLINK-3757,1 52539U 22051G   22150.87471917  .00054960  00000-0  39351-3 0  9996,2 52539  53.2168 209.2305 0002639  20.3405 339.7719 15.73193993  3143,6727.9119999999975,91.534,351.55300000000005,348.00199999999984,0.0
52539.0,STARLINK-3757,PAYLOAD,2022-05-31 04:36:59,15.73234717,0.0002636,53.2168,207.6582,22.0804,338.033,0.00030637,0.00042663,0.0,0 STARLINK-3757,1 52539U 22051G   22151.19235350  .00042663  00000-0  30637-3 0  9996,2 52539  53.2168 207.6582 0002636  22.0804 338.0330 15.73234717  3265,6727.795999999999,91.531,351.435,347.88800000000015,0.0
52539.0,STARLINK-3757,PAYLOAD,2022-05-31 06:00:02,15.7320716,0.0002475,53.2171,207.3579,14.9416,311.9701,-0.0053993,-0.00698958,0.0,0 STARLINK-3757,1 52539U 22051G   22151.25002315 -.00698958  00000-0 -53993-2 0  9991,2 52539  53.2171 207.3579 0002475  14.9416 311.9701 15.73207160  1309,6727.875,91.533,351.405,348.075,0.0
52539.0,STARLINK-3757,PAYLOAD,2022-05-31 13:45:56,15.72921764,0.0002327,53.2168,205.7729,359.6191,0.4827,-0.0015204,-0.00206416,0.0,0 STARLINK-3757,1 52539U 22051G   22151.57357352 -.00206416  00000-0 -15204-2 0  9997,2 52539  53.2168 205.7729 0002327 359.6191   0.4827 15.72921764  3324,6728.689,91.549,352.119,348.98800000000006,0.0
52539.0,STARLINK-3757,PAYLOAD,2022-05-31 22:00:00,15.72199934,0.0002458,53.2175,204.0568,16.8594,126.655,-0.0057858,-0.00715828,0.0,0 STARLINK-3757,1 52539U 22051G   22151.91667824 -.00715828  00000-0 -57858-2 0  9996,2 52539  53.2175 204.0568 0002458  16.8594 126.6550 15.72199934  3374,6730.748000000001,91.591,354.267,350.958,0.0
52539.0,STARLINK-3757,PAYLOAD,2022-06-01 20:00:01,15.70792284,0.0004151,53.2175,199.5287,304.6569,347.7826,-0.0060511,-0.00706516,0.0,0 STARLINK-3757,1 52539U 22051G   22152.83334491 -.00706516  00000-0 -60511-2 0  9993,2 52539  53.2175 199.5287 0004151 304.6569 347.7826 15.70792284  3515,6734.768,91.673,359.42900000000014,353.838,0.0
52539.0,STARLINK-3757,PAYLOAD,2022-06-02 17:40:29,15.69809064,0.0004611,53.216,195.1026,283.1701,76.8803,-0.0013585,-0.00162774,0.0,0 STARLINK-3757,1 52539U 22051G   22153.73645361 -.00162774  00000-0 -13585-2 0  9995,2 52539  53.2160 195.1026 0004611 283.1701  76.8803 15.69809064  3666,6737.58,91.731,362.552,356.339,0.0
52539.0,STARLINK-3757,PAYLOAD,2022-06-03 02:50:37,15.69610697,0.0005227,53.2193,193.2237,277.0555,82.9869,-0.00027255,-0.0003337,0.0,0 STARLINK-3757,1 52539U 22051G   22154.11849485 -.00033370  00000-0 -27255-3 0  9990,2 52539  53.2193 193.2237 0005227 277.0555  82.9869 15.69610697  3727,6738.148,91.742,363.535,356.491,0.0
52539.0,STARLINK-3757,PAYLOAD,2022-06-03 12:00:55,15.68971131,0.0002937,53.2171,191.3397,271.2813,88.7869,-0.0037064,-0.00415144,0.0,0 STARLINK-3757,1 52539U 22051G   22154.50064489 -.00415144  00000-0 -37064-2 0  9997,2 52539  53.2171 191.3397 0002937 271.2813  88.7869 15.68971131  3789,6739.979,91.78,363.823,359.86400000000015,0.0
52539.0,STARLINK-3757,PAYLOAD,2022-06-03 13:33:07,15.6840182,0.0001912,53.2147,191.0286,355.3517,4.7483,-0.0042175,-0.00458826,0.0,0 STARLINK-3757,1 52539U 22051G   22154.56467084 -.00458826  00000-0 -42175-2 0  9994,2 52539  53.2147 191.0286 0001912 355.3517   4.7483 15.68401820  3797,6741.61,91.813,364.764,362.186,0.0
52539.0,STARLINK-3757,PAYLOAD,2022-06-04 01:47:16,15.68259516,9.67e-05,53.2152,188.5207,25.4336,334.6729,-0.0014449,-0.00162254,0.0,0 STARLINK-3757,1 52539U 22051G   22155.07449241 -.00162254  00000-0 -14449-2 0  9996,2 52539  53.2152 188.5207 0000967  25.4336 334.6729 15.68259516  3870,6742.018,91.822,364.535,363.231,0.0
52539.0,STARLINK-3757,PAYLOAD,2022-06-04 09:26:29,15.67436972,0.000182,53.215,186.9585,57.1772,302.9421,-0.0035357,-0.00373598,0.0,0 STARLINK-3757,1 52539U 22051G   22155.39339929 -.00373598  00000-0 -35357-2 0  9998,2 52539  53.2150 186.9585 0001820  57.1772 302.9421 15.67436972  3929,6744.376,91.87,367.469,365.014,0.0
52539.0,STARLINK-3757,PAYLOAD,2022-06-05 22:00:00,15.64549749,0.0001207,53.2174,179.4704,55.5577,254.8763,-0.0079081999999999,-0.00713143,0.0,0 STARLINK-3757,1 52539U 22051G   22156.91667824 -.00713143  00000-0 -79082-2 0  9992,2 52539  53.2174 179.4704 0001207  55.5577 254.8763 15.64549749  4164,6752.670999999999,92.039,375.351,373.721,0.0
52539.0,STARLINK-3757,PAYLOAD,2022-06-06 14:00:01,15.63531973,0.0001168,53.2171,176.2152,64.6981,41.5724,-0.0082717,-0.00716048,0.0,0 STARLINK-3757,1 52539U 22051G   22157.58334491 -.00716048  00000-0 -82717-2 0  9993,2 52539  53.2171 176.2152 0001168  64.6981  41.5724 15.63531973  1309,6755.601,92.099,378.255,376.677,0.0
52539.0,STARLINK-3757,PAYLOAD,2022-06-06 22:00:00,15.63021017,0.0001337,53.2171,174.5866,59.5068,123.7653,-0.0084209,-0.00714551,0.0,0 STARLINK-3757,1 52539U 22051G   22157.91667824 -.00714551  00000-0 -84209-2 0  9994,2 52539  53.2171 174.5866 0001337  59.5068 123.7653 15.63021017  4310,6757.073,92.129,379.842,378.035,0.0
52539.0,STARLINK-3757,PAYLOAD,2022-06-07 14:00:01,15.62002481,0.0001065,53.2172,171.33900000000003,75.1469,260.285,-0.0087832,-0.0071588,0.0,0 STARLINK-3757,1 52539U 22051G   22158.58334491 -.00715880  00000-0 -87832-2 0  9990,2 52539  53.2172 171.3390 0001065  75.1469 260.2850 15.62002481  1300,6760.01,92.189,382.595,381.155,0.0
52539.0,STARLINK-3757,PAYLOAD,2022-06-07 22:00:00,15.61490667,0.0001193,53.2173,169.7141,51.2378,359.3581,-0.00894,-0.00714402,0.0,0 STARLINK-3757,1 52539U 22051G   22158.91667824 -.00714402  00000-0 -89400-2 0  9998,2 52539  53.2173 169.7141 0001193  51.2378 359.3581 15.61490667  4470,6761.486999999999,92.22,384.159,382.546,0.0
52539.0,STARLINK-3757,PAYLOAD,2022-06-08 14:00:01,15.60472909,0.0001264,53.2172,166.4736,70.29899999999999,128.7801,-0.0093429,-0.00717431,0.0,0 STARLINK-3757,1 52539U 22051G   22159.58334491 -.00717431  00000-0 -93429-2 0  9994,2 52539  53.2172 166.4736 0001264  70.2990 128.7801 15.60472909  1303,6764.427,92.28,387.147,385.437,0.0
52539.0,STARLINK-3757,PAYLOAD,2022-06-08 22:00:01,15.59960353,0.0001259,53.2174,164.8525,62.8005,209.6688,-0.0094645,-0.00712945,0.0,0 STARLINK-3757,1 52539U 22051G   22159.91668981 -.00712945  00000-0 -94645-2 0  9991,2 52539  53.2174 164.8525 0001259  62.8005 209.6688 15.59960353  4624,6765.909000000002,92.31,388.626,386.922,0.0
